IRIDIUM 106             
1 41917U 17003A   24146.43271269  .00000525  00000+0  18046-3 0  9997
2 41917  86.3994  43.0976 0001869  94.6633 265.4776 14.34217164385317
IRIDIUM 103             
1 41918U 17003B   24146.42002785  .00000544  00000+0  18711-3 0  9992
2 41918  86.3993  43.0049 0002079  76.8585 283.2843 14.34216136385333
IRIDIUM 109             
1 41919U 17003C   24146.42637001  .00000502  00000+0  17213-3 0  9998
2 41919  86.3994  43.0493 0002468  81.6654 278.4821 14.34216210385303
IRIDIUM 102             
1 41920U 17003D   24146.46442569  .00000556  00000+0  19144-3 0  9991
2 41920  86.3993  42.9728 0002431  85.8009 274.3465 14.34219077385395
IRIDIUM 105             
1 41921U 17003E   24146.36534917  .00000079  00000+0  21269-4 0  9992
2 41921  86.3993  11.4534 0002100  83.0772 277.0663 14.34229724387237
IRIDIUM 104             
1 41922U 17003F   24146.26781623  .00000543  00000+0  18695-3 0  9994
2 41922  86.3995  43.0861 0002495  77.2455 282.9019 14.34214994385358
IRIDIUM 114             
1 41923U 17003G   24146.62299083  .00000501  00000+0  17169-3 0  9998
2 41923  86.3994  42.9239 0002063  91.1087 269.0345 14.34217325385384
IRIDIUM 108             
1 41924U 17003H   24146.58150673  .00000511  00000+0  17525-3 0  9992
2 41924  86.3990  11.2897 0002013  90.8664 269.2763 14.34215960387237
